start=new Date('2021-12-10T00:00:00.000Z').valueOf();
sats=[{"RCS_SIZE":"LARGE","MEAN_MOTION":"15.06386941","COUNTRY_CODE":"US","MEAN_MOTION_DDOT":"0.0000000000000","RA_OF_ASC_NODE":"74.0422","NORAD_CAT_ID":"47130","FILE":"3236488","MEAN_ELEMENT_THEORY":"SGP4","SEMIMAJOR_AXIS":"6925.389","REF_FRAME":"TEME","APOAPSIS":"548.189","PERIAPSIS":"546.319","OBJECT_NAME":"STARLINK-1839","INCLINATION":"53.0552","MEAN_ANOMALY":"287.1978","OBJECT_TYPE":"PAYLOAD","MEAN_MOTION_DOT":"-0.00000253","LAUNCH_DATE":"2020-11-25","OBJECT_ID":"2020-088J","TIME_SYSTEM":"UTC","GP_ID":"191398688","ELEMENT_SET_NO":"999","BSTAR":"0.00000191580000","CLASSIFICATION_TYPE":"U","EPHEMERIS_TYPE":"0","PERIOD":"95.593","EPOCH":"2021-12-09T18:02:13.480224","DECAY_DATE":null,"TLE_LINE1":"1 47130U 20088J   21343.75154491 -.00000253  00000-0  19158-5 0  9992","SITE":"AFETR","REV_AT_EPOCH":"5793","TLE_LINE2":"2 47130  53.0552  74.0422 0001350  72.9159 287.1978 15.06386941 57937","CENTER_NAME":"EARTH","ECCENTRICITY":"0.00013500","ARG_OF_PERICENTER":"72.9159"},{"ARG_OF_PERICENTER":"50.4394","ECCENTRICITY":"0.00031040","TLE_LINE2":"2 47131  53.0531   8.2273 0003104  50.4394 309.6892 15.58531740 58841","CENTER_NAME":"EARTH","REV_AT_EPOCH":"5884","TLE_LINE1":"1 47131U 20088K   21343.48602148  .00010876  00000-0  14599-3 0  9993","SITE":"AFETR","DECAY_DATE":null,"EPOCH":"2021-12-09T11:39:52.255872","PERIOD":"92.395","EPHEMERIS_TYPE":"0","CLASSIFICATION_TYPE":"U","BSTAR":"0.00014599000000","ELEMENT_SET_NO":"999","GP_ID":"191398940","TIME_SYSTEM":"UTC","LAUNCH_DATE":"2020-11-25","OBJECT_ID":"2020-088K","MEAN_MOTION_DOT":"0.00010876","MEAN_ANOMALY":"309.6892","OBJECT_TYPE":"PAYLOAD","OBJECT_NAME":"STARLINK-1840","INCLINATION":"53.0531","APOAPSIS":"394.009","PERIAPSIS":"389.806","REF_FRAME":"TEME","SEMIMAJOR_AXIS":"6770.043","MEAN_ELEMENT_THEORY":"SGP4","FILE":"3236488","NORAD_CAT_ID":"47131","RA_OF_ASC_NODE":"8.2273","MEAN_MOTION_DDOT":"0.0000000000000","COUNTRY_CODE":"US","MEAN_MOTION":"15.58531740","RCS_SIZE":"LARGE"},{"MEAN_ANOMALY":"285.6300","OBJECT_TYPE":"PAYLOAD","OBJECT_NAME":"STARLINK-1843","INCLINATION":"53.0393","PERIAPSIS":"546.094","APOAPSIS":"548.287","REF_FRAME":"TEME","SEMIMAJOR_AXIS":"6925.325","MEAN_ELEMENT_THEORY":"SGP4","NORAD_CAT_ID":"47133","FILE":"3236488","MEAN_MOTION_DDOT":"0.0000000000000","RA_OF_ASC_NODE":"54.6725","COUNTRY_CODE":"US","MEAN_MOTION":"15.06407600","RCS_SIZE":"LARGE","ARG_OF_PERICENTER":"74.4863","ECCENTRICITY":"0.00015830","TLE_LINE1":"1 47133U 20088M   21343.62805367 -.00002537  00000-0 -15147-3 0  9996","SITE":"AFETR","REV_AT_EPOCH":"5819","TLE_LINE2":"2 47133  53.0393  54.6725 0001583  74.4863 285.6300 15.06407600 58197","CENTER_NAME":"EARTH","DECAY_DATE":null,"PERIOD":"95.592","EPOCH":"2021-12-09T15:04:23.837088","EPHEMERIS_TYPE":"0","BSTAR":"-0.00015147000000","CLASSIFICATION_TYPE":"U","GP_ID":"191399690","ELEMENT_SET_NO":"999","TIME_SYSTEM":"UTC","OBJECT_ID":"2020-088M","LAUNCH_DATE":"2020-11-25","MEAN_MOTION_DOT":"-0.00002537"},{"MEAN_MOTION_DDOT":"0.0000000000000","RA_OF_ASC_NODE":"64.4311","NORAD_CAT_ID":"47134","FILE":"3236488","MEAN_MOTION":"15.06400050","RCS_SIZE":"LARGE","COUNTRY_CODE":"US","PERIAPSIS":"545.477","APOAPSIS":"548.950","OBJECT_NAME":"STARLINK-1844","INCLINATION":"53.0553","OBJECT_TYPE":"PAYLOAD","MEAN_ANOMALY":"186.3534","MEAN_ELEMENT_THEORY":"SGP4","SEMIMAJOR_AXIS":"6925.348","REF_FRAME":"TEME","GP_ID":"191398438","ELEMENT_SET_NO":"999","BSTAR":"-0.00003117200000","CLASSIFICATION_TYPE":"U","MEAN_MOTION_DOT":"-0.00000746","LAUNCH_DATE":"2020-11-25","OBJECT_ID":"2020-088N","TIME_SYSTEM":"UTC","DECAY_DATE":null,"SITE":"AFETR","TLE_LINE1":"1 47134U 20088N   21343.66768087 -.00000746  00000-0 -31172-4 0  9995","REV_AT_EPOCH":"5806","TLE_LINE2":"2 47134  53.0553  64.4311 0002508 173.7486 186.3534 15.06400050 58062","CENTER_NAME":"EARTH","ECCENTRICITY":"0.00025080","ARG_OF_PERICENTER":"173.7486","EPHEMERIS_TYPE":"0","PERIOD":"95.592","EPOCH":"2021-12-09T16:01:27.627168"},{"RCS_SIZE":"LARGE","MEAN_MOTION":"15.06397803","COUNTRY_CODE":"US","RA_OF_ASC_NODE":"54.6409","MEAN_MOTION_DDOT":"0.0000000000000","NORAD_CAT_ID":"47135","FILE":"3236488","MEAN_ELEMENT_THEORY":"SGP4","SEMIMAJOR_AXIS":"6925.355","REF_FRAME":"TEME","PERIAPSIS":"546.329","APOAPSIS":"548.112","INCLINATION":"53.0576","OBJECT_NAME":"STARLINK-1845","MEAN_ANOMALY":"291.7521","OBJECT_TYPE":"PAYLOAD","MEAN_MOTION_DOT":"-0.00000519","OBJECT_ID":"2020-088P","LAUNCH_DATE":"2020-11-25","TIME_SYSTEM":"UTC","ELEMENT_SET_NO":"999","GP_ID":"191398189","CLASSIFICATION_TYPE":"U","BSTAR":"-0.00001593000000","EPHEMERIS_TYPE":"0","PERIOD":"95.592","EPOCH":"2021-12-09T14:53:47.425920","DECAY_DATE":null,"REV_AT_EPOCH":"5819","TLE_LINE2":"2 47135  53.0576  54.6409 0001287  68.3605 291.7521 15.06397803 58194","CENTER_NAME":"EARTH","SITE":"AFETR","TLE_LINE1":"1 47135U 20088P   21343.62068780 -.00000519  00000-0 -15930-4 0  9997","ECCENTRICITY":"0.00012870","ARG_OF_PERICENTER":"68.3605"},{"REF_FRAME":"TEME","MEAN_ELEMENT_THEORY":"SGP4","SEMIMAJOR_AXIS":"6925.346","OBJECT_TYPE":"PAYLOAD","MEAN_ANOMALY":"294.6876","PERIAPSIS":"546.214","APOAPSIS":"548.207","INCLINATION":"53.0559","OBJECT_NAME":"STARLINK-1846","COUNTRY_CODE":"US","MEAN_MOTION":"15.06400864","RCS_SIZE":"LARGE","FILE":"3236488","NORAD_CAT_ID":"47136","MEAN_MOTION_DDOT":"0.0000000000000","RA_OF_ASC_NODE":"64.0417","EPOCH":"2021-12-09T18:03:32.922432","PERIOD":"95.592","EPHEMERIS_TYPE":"0","ECCENTRICITY":"0.00014390","ARG_OF_PERICENTER":"65.4263","DECAY_DATE":null,"TLE_LINE1":"1 47136U 20088Q   21343.75246438  .00002678  00000-0  19861-3 0  9992","SITE":"AFETR","TLE_LINE2":"2 47136  53.0559  64.0417 0001439  65.4263 294.6876 15.06400864 58071","REV_AT_EPOCH":"5807","CENTER_NAME":"EARTH","LAUNCH_DATE":"2020-11-25","OBJECT_ID":"2020-088Q","TIME_SYSTEM":"UTC","MEAN_MOTION_DOT":"0.00002678","GP_ID":"191399440","ELEMENT_SET_NO":"999","BSTAR":"0.00019861000000","CLASSIFICATION_TYPE":"U"},{"ECCENTRICITY":"0.00011460","ARG_OF_PERICENTER":"65.3652","DECAY_DATE":null,"CENTER_NAME":"EARTH","TLE_LINE2":"2 47137  53.0555  54.7217 0001146  65.3652 294.7456 15.06401627 58194","REV_AT_EPOCH":"5819","SITE":"AFETR","TLE_LINE1":"1 47137U 20088R   21343.60225710  .00001185  00000-0  98446-4 0  9996","EPOCH":"2021-12-09T14:27:15.013440","PERIOD":"95.592","EPHEMERIS_TYPE":"0","ELEMENT_SET_NO":"999","GP_ID":"191399191","CLASSIFICATION_TYPE":"U","BSTAR":"0.00009844600000","OBJECT_ID":"2020-088R","LAUNCH_DATE":"2020-11-25","TIME_SYSTEM":"UTC","MEAN_MOTION_DOT":"0.00001185","OBJECT_TYPE":"PAYLOAD","MEAN_ANOMALY":"294.7456","APOAPSIS":"548.002","PERIAPSIS":"546.415","OBJECT_NAME":"STARLINK-1849","INCLINATION":"53.0555","REF_FRAME":"TEME","MEAN_ELEMENT_THEORY":"SGP4","SEMIMAJOR_AXIS":"6925.344","NORAD_CAT_ID":"47137","FILE":"3236488","RA_OF_ASC_NODE":"54.7217","MEAN_MOTION_DDOT":"0.0000000000000","COUNTRY_CODE":"US","RCS_SIZE":"LARGE","MEAN_MOTION":"15.06401627"},{"MEAN_MOTION_DDOT":"0.0000000000000","RA_OF_ASC_NODE":"60.1540","FILE":"3236488","NORAD_CAT_ID":"47138","RCS_SIZE":"LARGE","MEAN_MOTION":"15.06396422","COUNTRY_CODE":"US","PERIAPSIS":"546.266","APOAPSIS":"548.183","INCLINATION":"53.0575","OBJECT_NAME":"STARLINK-1850","MEAN_ANOMALY":"285.3657","OBJECT_TYPE":"PAYLOAD","MEAN_ELEMENT_THEORY":"SGP4","SEMIMAJOR_AXIS":"6925.360","REF_FRAME":"TEME","GP_ID":"191397939","ELEMENT_SET_NO":"999","BSTAR":"0.00001483400000","CLASSIFICATION_TYPE":"U","MEAN_MOTION_DOT":"-0.00000060","LAUNCH_DATE":"2020-11-25","OBJECT_ID":"2020-088S","TIME_SYSTEM":"UTC","DECAY_DATE":null,"TLE_LINE1":"1 47138U 20088S   21343.50317036 -.00000060  00000-0  14834-4 0  9990","SITE":"AFETR","TLE_LINE2":"2 47138  53.0575  60.1540 0001384  74.7485 285.3657 15.06396422 58116","REV_AT_EPOCH":"5811","CENTER_NAME":"EARTH","ECCENTRICITY":"0.00013840","ARG_OF_PERICENTER":"74.7485","EPHEMERIS_TYPE":"0","PERIOD":"95.592","EPOCH":"2021-12-09T12:04:33.919104"},{"MEAN_MOTION":"15.06399053","RCS_SIZE":"LARGE","COUNTRY_CODE":"US","RA_OF_ASC_NODE":"69.8899","MEAN_MOTION_DDOT":"0.0000000000000","FILE":"3236488","NORAD_CAT_ID":"47139","MEAN_ELEMENT_THEORY":"SGP4","SEMIMAJOR_AXIS":"6925.351","REF_FRAME":"TEME","PERIAPSIS":"546.298","APOAPSIS":"548.135","INCLINATION":"53.0564","OBJECT_NAME":"STARLINK-1852","OBJECT_TYPE":"PAYLOAD","MEAN_ANOMALY":"276.3603","MEAN_MOTION_DOT":"0.00001245","LAUNCH_DATE":"2020-11-25","OBJECT_ID":"2020-088T","TIME_SYSTEM":"UTC","ELEMENT_SET_NO":"999","GP_ID":"191398689","CLASSIFICATION_TYPE":"U","BSTAR":"0.00010245000000","EPHEMERIS_TYPE":"0","PERIOD":"95.592","EPOCH":"2021-12-09T13:33:28.434816","DECAY_DATE":null,"TLE_LINE2":"2 47139  53.0564  69.8899 0001326  83.7537 276.3603 15.06399053 57979","CENTER_NAME":"EARTH","REV_AT_EPOCH":"5797","TLE_LINE1":"1 47139U 20088T   21343.56491244  .00001245  00000-0  10245-3 0  9997","SITE":"AFETR","ECCENTRICITY":"0.00013260","ARG_OF_PERICENTER":"83.7537"},{"MEAN_MOTION_DOT":"0.00063551","TIME_SYSTEM":"UTC","OBJECT_ID":"2020-088U","LAUNCH_DATE":"2020-11-25","CLASSIFICATION_TYPE":"U","BSTAR":"0.00029188000000","ELEMENT_SET_NO":"999","GP_ID":"191398941","EPHEMERIS_TYPE":"0","EPOCH":"2021-12-09T10:30:42.384384","PERIOD":"90.970","CENTER_NAME":"EARTH","TLE_LINE2":"2 47140  53.0482   4.5185 0013080  53.8155 306.4075 15.82938395 58889","REV_AT_EPOCH":"5888","TLE_LINE1":"1 47140U 20088U   21343.43799056  .00063551  00000-0  29188-3 0  9991","SITE":"AFETR","DECAY_DATE":null,"ARG_OF_PERICENTER":"53.8155","ECCENTRICITY":"0.00130800","RCS_SIZE":"LARGE","MEAN_MOTION":"15.82938395","COUNTRY_CODE":"US","RA_OF_ASC_NODE":"4.5185","MEAN_MOTION_DDOT":"0.0000000000000","NORAD_CAT_ID":"47140","FILE":"3236488","SEMIMAJOR_AXIS":"6700.273","MEAN_ELEMENT_THEORY":"SGP4","REF_FRAME":"TEME","OBJECT_NAME":"STARLINK-1853","INCLINATION":"53.0482","APOAPSIS":"330.902","PERIAPSIS":"313.374","MEAN_ANOMALY":"306.4075","OBJECT_TYPE":"PAYLOAD"}];
